[{"OBJECT_NAME":"NUSAT-41 (C PAYNE-G)","OBJECT_ID":"2023-084N","EPOCH":"2026-03-09T21:55:54.837696","MEAN_MOTION":15.29680045,"ECCENTRICITY":0.00062175,"INCLINATION":97.5351,"RA_OF_ASC_NODE":204.1011,"ARG_OF_PERICENTER":322.2064,"MEAN_ANOMALY":37.8738,"EPHEMERIS_TYPE":0,"CLASSIFICATION_TYPE":"U","NORAD_CAT_ID":56944,"ELEMENT_SET_NO":999,"REV_AT_EPOCH":15260,"BSTAR":0.00059912824,"MEAN_MOTION_DOT":0.0001718,"MEAN_MOTION_DDOT":0},{"OBJECT_NAME":"STARLINK-34306","OBJECT_ID":"2025-120D","EPOCH":"2026-03-09T12:27:33.283008","MEAN_MOTION":15.30190625,"ECCENTRICITY":0.00013534,"INCLINATION":53.1601,"RA_OF_ASC_NODE":117.2262,"ARG_OF_PERICENTER":76.6066,"MEAN_ANOMALY":283.5085,"EPHEMERIS_TYPE":0,"CLASSIFICATION_TYPE":"U","NORAD_CAT_ID":64259,"ELEMENT_SET_NO":999,"REV_AT_EPOCH":4384,"BSTAR":0.00086737168,"MEAN_MOTION_DOT":0.0002541,"MEAN_MOTION_DDOT":0}]
